[{"OBJECT_NAME":"STARLINK-31900","OBJECT_ID":"2024-106W","EPOCH":"2026-03-09T23:56:30.971616","MEAN_MOTION":15.27581578,"ECCENTRICITY":0.00015774,"INCLINATION":43.0024,"RA_OF_ASC_NODE":330.459,"ARG_OF_PERICENTER":255.2584,"MEAN_ANOMALY":104.8093,"EPHEMERIS_TYPE":0,"CLASSIFICATION_TYPE":"U","NORAD_CAT_ID":59942,"ELEMENT_SET_NO":999,"REV_AT_EPOCH":10057,"BSTAR":-5.682209e-5,"MEAN_MOTION_DOT":-1.826e-5,"MEAN_MOTION_DDOT":0},{"OBJECT_NAME":"OBJECT D","OBJECT_ID":"2024-203D","EPOCH":"2026-03-09T23:01:14.628576","MEAN_MOTION":15.25394324,"ECCENTRICITY":0.00105281,"INCLINATION":97.4343,"RA_OF_ASC_NODE":139.6527,"ARG_OF_PERICENTER":340.1906,"MEAN_ANOMALY":19.8921,"EPHEMERIS_TYPE":0,"CLASSIFICATION_TYPE":"U","NORAD_CAT_ID":61872,"ELEMENT_SET_NO":999,"REV_AT_EPOCH":7378,"BSTAR":0.00059366578,"MEAN_MOTION_DOT":0.00014956,"MEAN_MOTION_DDOT":0}]
